[{"OBJECT_NAME":"STARLINK-2442","OBJECT_ID":"2021-027Q","EPOCH":"2026-03-10T00:00:02.999808","MEAN_MOTION":15.12843694,"ECCENTRICITY":0.00016767,"INCLINATION":53.0809,"RA_OF_ASC_NODE":150.1574,"ARG_OF_PERICENTER":67.9437,"MEAN_ANOMALY":29.2059,"EPHEMERIS_TYPE":0,"CLASSIFICATION_TYPE":"U","NORAD_CAT_ID":48106,"ELEMENT_SET_NO":999,"REV_AT_EPOCH":580,"BSTAR":0.075140928,"MEAN_MOTION_DOT":0.01463566,"MEAN_MOTION_DDOT":0},{"OBJECT_NAME":"TIANYI D","OBJECT_ID":"2025-103D","EPOCH":"2026-03-09T23:34:58.761120","MEAN_MOTION":15.17585696,"ECCENTRICITY":0.00029978,"INCLINATION":97.3899,"RA_OF_ASC_NODE":142.5822,"ARG_OF_PERICENTER":153.0168,"MEAN_ANOMALY":207.1222,"EPHEMERIS_TYPE":0,"CLASSIFICATION_TYPE":"U","NORAD_CAT_ID":64051,"ELEMENT_SET_NO":999,"REV_AT_EPOCH":4495,"BSTAR":0.00030791157,"MEAN_MOTION_DOT":6.122e-5,"MEAN_MOTION_DDOT":0}]
